{
 "generated_at": "2026-07-10T08:23:00Z",
 "sources": [
  {
   "name": "CelesTrak",
   "url": "https://celestrak.org/NORAD/elements/",
   "license": "frei verfügbar; Attribution. Ursprünglich USSPACECOM/Space-Track."
  },
  {
   "name": "GCAT (J. McDowell, planet4589.org)",
   "url": "https://planet4589.org/space/gcat/",
   "license": "CC-BY 4.0"
  }
 ],
 "satellites": [
  {
   "norad": 68835,
   "name": "PRSC-E03",
   "intl": "2026-092A",
   "group": "resource",
   "gcat": {
    "class": "C",
    "category": "IMG",
    "owner": "SUPA",
    "state": "PK"
   },
   "omm": {
    "OBJECT_NAME": "PRSC-E03",
    "OBJECT_ID": "2026-092A",
    "EPOCH": "2026-07-09T18:53:38.652288",
    "MEAN_MOTION": 15.06792698,
    "ECCENTRICITY": 0.0004354,
    "INCLINATION": 38.0024,
    "RA_OF_ASC_NODE": 316.4023,
    "ARG_OF_PERICENTER": 216.9149,
    "MEAN_ANOMALY": 143.1313,
    "EPHEMERIS_TYPE": 0,
    "CLASSIFICATION_TYPE": "U",
    "NORAD_CAT_ID": 68835,
    "ELEMENT_SET_NO": 999,
    "REV_AT_EPOCH": 1136,
    "BSTAR": 0.00013154,
    "MEAN_MOTION_DOT": 0.00001887,
    "MEAN_MOTION_DDOT": 0
   }
  },
  {
   "norad": 62725,
   "name": "PRSC-EO1",
   "intl": "2025-012A",
   "group": "resource",
   "gcat": {
    "class": "C",
    "category": "IMG",
    "owner": "JHQJ/YINHE",
    "state": "CN"
   },
   "omm": {
    "OBJECT_NAME": "PRSC-EO1",
    "OBJECT_ID": "2025-012A",
    "EPOCH": "2026-07-09T20:56:14.237664",
    "MEAN_MOTION": 15.17740083,
    "ECCENTRICITY": 0.0006482,
    "INCLINATION": 97.422,
    "RA_OF_ASC_NODE": 262.888,
    "ARG_OF_PERICENTER": 165.5392,
    "MEAN_ANOMALY": 194.6028,
    "EPHEMERIS_TYPE": 0,
    "CLASSIFICATION_TYPE": "U",
    "NORAD_CAT_ID": 62725,
    "ELEMENT_SET_NO": 999,
    "REV_AT_EPOCH": 8163,
    "BSTAR": 0.00026187,
    "MEAN_MOTION_DOT": 0.00005221,
    "MEAN_MOTION_DDOT": 0
   }
  },
  {
   "norad": 65055,
   "name": "PRSC-S1",
   "intl": "2025-164A",
   "group": "resource",
   "gcat": {
    "class": "C",
    "category": "IMG-R",
    "owner": "SUPA",
    "state": "PK"
   },
   "omm": {
    "OBJECT_NAME": "PRSC-S1",
    "OBJECT_ID": "2025-164A",
    "EPOCH": "2026-07-09T19:17:24.512352",
    "MEAN_MOTION": 15.0660868,
    "ECCENTRICITY": 0.0005823,
    "INCLINATION": 41.129,
    "RA_OF_ASC_NODE": 160.4182,
    "ARG_OF_PERICENTER": 161.4992,
    "MEAN_ANOMALY": 198.6034,
    "EPHEMERIS_TYPE": 0,
    "CLASSIFICATION_TYPE": "U",
    "NORAD_CAT_ID": 65055,
    "ELEMENT_SET_NO": 999,
    "REV_AT_EPOCH": 5184,
    "BSTAR": 0.00016609,
    "MEAN_MOTION_DOT": 0.00002327,
    "MEAN_MOTION_DDOT": 0
   }
  },
  {
   "norad": 64055,
   "name": "QPS-SAR-10 (WADATSUMI-I)",
   "intl": "2025-104A",
   "group": "sar",
   "gcat": {
    "class": "B",
    "category": "IMG-R",
    "owner": "QPS",
    "state": "J"
   },
   "omm": {
    "OBJECT_NAME": "QPS-SAR-10 (WADATSUMI-I)",
    "OBJECT_ID": "2025-104A",
    "EPOCH": "2026-07-09T20:47:36.884832",
    "MEAN_MOTION": 15.01953962,
    "ECCENTRICITY": 0.0011852,
    "INCLINATION": 42.0025,
    "RA_OF_ASC_NODE": 153.8756,
    "ARG_OF_PERICENTER": 131.142,
    "MEAN_ANOMALY": 229.0431,
    "EPHEMERIS_TYPE": 0,
    "CLASSIFICATION_TYPE": "U",
    "NORAD_CAT_ID": 64055,
    "ELEMENT_SET_NO": 999,
    "REV_AT_EPOCH": 6284,
    "BSTAR": 0.00023387,
    "MEAN_MOTION_DOT": 0.00002929,
    "MEAN_MOTION_DDOT": 0
   }
  },
  {
   "norad": 64340,
   "name": "QPS-SAR-11 (YAMATSUMI-I)",
   "intl": "2025-125A",
   "group": "sar",
   "gcat": {
    "class": "B",
    "category": "IMG-R",
    "owner": "QPS",
    "state": "J"
   },
   "omm": {
    "OBJECT_NAME": "QPS-SAR-11 (YAMATSUMI-I)",
    "OBJECT_ID": "2025-125A",
    "EPOCH": "2026-07-09T03:21:06.616224",
    "MEAN_MOTION": 15.01800026,
    "ECCENTRICITY": 0.0011478,
    "INCLINATION": 42.0084,
    "RA_OF_ASC_NODE": 70.7166,
    "ARG_OF_PERICENTER": 269.6888,
    "MEAN_ANOMALY": 90.2623,
    "EPHEMERIS_TYPE": 0,
    "CLASSIFICATION_TYPE": "U",
    "NORAD_CAT_ID": 64340,
    "ELEMENT_SET_NO": 999,
    "REV_AT_EPOCH": 5892,
    "BSTAR": 0.00023915916,
    "MEAN_MOTION_DOT": 0.00002987,
    "MEAN_MOTION_DDOT": 0
   }
  },
  {
   "norad": 65116,
   "name": "QPS-SAR-12 (KUSHINADA-I)",
   "intl": "2025-169A",
   "group": "sar",
   "gcat": {
    "class": "B",
    "category": "IMG-R",
    "owner": "QPS",
    "state": "J"
   },
   "omm": {
    "OBJECT_NAME": "QPS-SAR-12 (KUSHINADA-I)",
    "OBJECT_ID": "2025-169A",
    "EPOCH": "2026-07-09T15:55:50.757024",
    "MEAN_MOTION": 15.01043779,
    "ECCENTRICITY": 0.0007557,
    "INCLINATION": 42.0109,
    "RA_OF_ASC_NODE": 252.1914,
    "ARG_OF_PERICENTER": 351.8838,
    "MEAN_ANOMALY": 8.1865,
    "EPHEMERIS_TYPE": 0,
    "CLASSIFICATION_TYPE": "U",
    "NORAD_CAT_ID": 65116,
    "ELEMENT_SET_NO": 999,
    "REV_AT_EPOCH": 5079,
    "BSTAR": 0.00020375,
    "MEAN_MOTION_DOT": 0.00002463,
    "MEAN_MOTION_DDOT": 0
   }
  },
  {
   "norad": 66316,
   "name": "QPS-SAR-14 (YACHIHOKO-I)",
   "intl": "2025-252A",
   "group": "sar",
   "gcat": {
    "class": "B",
    "category": "IMG-R",
    "owner": "QPS",
    "state": "J"
   },
   "omm": {
    "OBJECT_NAME": "QPS-SAR-14 (YACHIHOKO-I)",
    "OBJECT_ID": "2025-252A",
    "EPOCH": "2026-07-09T18:30:45.981792",
    "MEAN_MOTION": 14.9978996,
    "ECCENTRICITY": 0.0004947,
    "INCLINATION": 42.0043,
    "RA_OF_ASC_NODE": 7.6482,
    "ARG_OF_PERICENTER": 29.3164,
    "MEAN_ANOMALY": 330.7938,
    "EPHEMERIS_TYPE": 0,
    "CLASSIFICATION_TYPE": "U",
    "NORAD_CAT_ID": 66316,
    "ELEMENT_SET_NO": 999,
    "REV_AT_EPOCH": 3690,
    "BSTAR": 0.00023342,
    "MEAN_MOTION_DOT": 0.00002753,
    "MEAN_MOTION_DDOT": 0
   }
  },
  {
   "norad": 67228,
   "name": "QPS-SAR-15 (SUKUNAMI-I)",
   "intl": "2025-307A",
   "group": "sar",
   "gcat": {
    "class": "B",
    "category": "IMG-R",
    "owner": "QPS",
    "state": "J"
   },
   "omm": {
    "OBJECT_NAME": "QPS-SAR-15 (SUKUNAMI-I)",
    "OBJECT_ID": "2025-307A",
    "EPOCH": "2026-07-09T03:49:59.188512",
    "MEAN_MOTION": 14.99164521,
    "ECCENTRICITY": 0.00093746,
    "INCLINATION": 42.0059,
    "RA_OF_ASC_NODE": 107.2207,
    "ARG_OF_PERICENTER": 145.7932,
    "MEAN_ANOMALY": 214.3498,
    "EPHEMERIS_TYPE": 0,
    "CLASSIFICATION_TYPE": "U",
    "NORAD_CAT_ID": 67228,
    "ELEMENT_SET_NO": 999,
    "REV_AT_EPOCH": 2998,
    "BSTAR": 0.00024512763,
    "MEAN_MOTION_DOT": 0.00002852,
    "MEAN_MOTION_DDOT": 0
   }
  },
  {
   "norad": 58578,
   "name": "QPS-SAR-5 (TSUKUYOMI-I)",
   "intl": "2023-196A",
   "group": "sar",
   "gcat": {
    "class": "B",
    "category": "IMG-R",
    "owner": "QPS",
    "state": "J"
   },
   "omm": {
    "OBJECT_NAME": "QPS-SAR-5 (TSUKUYOMI-I)",
    "OBJECT_ID": "2023-196A",
    "EPOCH": "2026-07-09T14:26:11.082624",
    "MEAN_MOTION": 15.2311235,
    "ECCENTRICITY": 0.0025195,
    "INCLINATION": 42.0092,
    "RA_OF_ASC_NODE": 248.2004,
    "ARG_OF_PERICENTER": 71.048,
    "MEAN_ANOMALY": 289.3082,
    "EPHEMERIS_TYPE": 0,
    "CLASSIFICATION_TYPE": "U",
    "NORAD_CAT_ID": 58578,
    "ELEMENT_SET_NO": 999,
    "REV_AT_EPOCH": 14166,
    "BSTAR": 0.00032454,
    "MEAN_MOTION_DOT": 0.00007649,
    "MEAN_MOTION_DDOT": 0
   }
  },
  {
   "norad": 59447,
   "name": "QPS-SAR-7 (TSUKUYOMI-II)",
   "intl": "2024-066F",
   "group": "sar",
   "gcat": {
    "class": "B",
    "category": "IMG-R",
    "owner": "QPS",
    "state": "J"
   },
   "omm": {
    "OBJECT_NAME": "QPS-SAR-7 (TSUKUYOMI-II)",
    "OBJECT_ID": "2024-066F",
    "EPOCH": "2026-07-09T19:24:37.672704",
    "MEAN_MOTION": 15.09201952,
    "ECCENTRICITY": 0.0000763,
    "INCLINATION": 45.603,
    "RA_OF_ASC_NODE": 126.5899,
    "ARG_OF_PERICENTER": 83.4403,
    "MEAN_ANOMALY": 276.6568,
    "EPHEMERIS_TYPE": 0,
    "CLASSIFICATION_TYPE": "U",
    "NORAD_CAT_ID": 59447,
    "ELEMENT_SET_NO": 999,
    "REV_AT_EPOCH": 12364,
    "BSTAR": 0.00032026,
    "MEAN_MOTION_DOT": 0.00004921,
    "MEAN_MOTION_DDOT": 0
   }
  }
 ]
}
