QPS-SAR-5 (TSUKUYOMI-I) 
1 58578U 23196A   26190.60151716  .00007649  00000+0  32454-3 0  9995
2 58578  42.0092 248.2004 0025195  71.0480 289.3082 15.23112350141667
QPS-SAR-7 (TSUKUYOMI-II)
1 59447U 24066F   26190.80876936  .00004921  00000+0  32026-3 0  9993
2 59447  45.6030 126.5899 0000763  83.4403 276.6568 15.09201952123647
PRSC-EO1                
1 62725U 25012A   26190.87238701  .00005221  00000+0  26187-3 0  9992
2 62725  97.4220 262.8880 0006482 165.5392 194.6028 15.17740083 81637
QPS-SAR-10 (WADATSUMI-I)
1 64055U 25104A   26190.86639913  .00002929  00000+0  23387-3 0  9992
2 64055  42.0025 153.8756 0011852 131.1420 229.0431 15.01953962 62841
QPS-SAR-11 (YAMATSUMI-I)
1 64340U 25125A   26190.13965991  .00002987  00000+0  23916-3 0  9992
2 64340  42.0084  70.7166 0011478 269.6888  90.2623 15.01800026 58921
PRSC-S1                 
1 65055U 25164A   26190.80375593  .00002327  00000+0  16609-3 0  9995
2 65055  41.1290 160.4182 0005823 161.4992 198.6034 15.06608680 51841
QPS-SAR-12 (KUSHINADA-I)
1 65116U 25169A   26190.66378191  .00002463  00000+0  20375-3 0  9995
2 65116  42.0109 252.1914 0007557 351.8838   8.1865 15.01043779 50797
QPS-SAR-14 (YACHIHOKO-I)
1 66316U 25252A   26190.77136553  .00002753  00000+0  23342-3 0  9996
2 66316  42.0043   7.6482 0004947  29.3164 330.7938 14.99789960 36906
QPS-SAR-15 (SUKUNAMI-I) 
1 67228U 25307A   26190.15971283  .00002852  00000+0  24513-3 0  9990
2 67228  42.0059 107.2207 0009374 145.7932 214.3498 14.99164521 29981
PRSC-E03                
1 68835U 26092A   26190.78725292  .00001887  00000+0  13154-3 0  9999
2 68835  38.0024 316.4023 0004354 216.9149 143.1313 15.06792698 11366
